COMMENT,ORIGINATOR,NORAD_CAT_ID,OBJECT_NAME,OBJECT_TYPE,CLASSIFICATION_TYPE,INTLDES,EPOCH,EPOCH_MICROSECONDS,MEAN_MOTION,ECCENTRICITY,INCLINATION,RA_OF_ASC_NODE,ARG_OF_PERICENTER,MEAN_ANOMALY,EPHEMERIS_TYPE,ELEMENT_SET_NO,REV_AT_EPOCH,BSTAR,MEAN_MOTION_DOT,MEAN_MOTION_DDOT,FILE,TLE_LINE0,TLE_LINE1,TLE_LINE2,OBJECT_ID,OBJECT_NUMBER,SEMIMAJOR_AXIS,PERIOD,APOGEE,PERIGEE,DECAYED
"GENERATED VIA SPACETRACK.ORG API","18 SPCS","48904","SPACEBEE-111","PAYLOAD","U","21059AB","2022-03-08 08:43:09","546816","15.14340199","0.0011812","97.5419","198.0356","92.772","267.4864","0","999","3864","0.00051581","0.00009408","0","3350976","0 SPACEBEE-111","1 48904U 21059AB  22067.36330494  .00009408  00000-0  51581-3 0  9995","2 48904  97.5419 198.0356 0011812  92.7720 267.4864 15.14340199 38649","2021-059AB","48904","6901.119","95.091","531.136","514.833","1"
"GENERATED VIA SPACETRACK.ORG API","18 SPCS","48904","SPACEBEE-111","PAYLOAD","U","21059AB","2022-03-08 21:24:22","9824","15.14348002","0.0011831","97.5418","198.5595","91.1516","269.1071","0","999","3872","0.00044979","0.00008196","0","3351330","0 SPACEBEE-111","1 48904U 21059AB  22067.89192141  .00008196  00000-0  44979-3 0  9994","2 48904  97.5418 198.5595 0011831  91.1516 269.1071 15.14348002 38724","2021-059AB","48904","6901.096","95.090","531.125","514.796","1"
"GENERATED VIA SPACETRACK.ORG API","18 SPCS","48904","SPACEBEE-111","PAYLOAD","U","21059AB","2022-03-09 02:09:49","102560","15.14351875","0.0011831","97.5418","198.756","90.3853","269.8734","0","999","3875","0.00046401","0.00008458","0","3351558","0 SPACEBEE-111","1 48904U 21059AB  22068.09015165  .00008458  00000-0  46401-3 0  9990","2 48904  97.5418 198.7560 0011831  90.3853 269.8734 15.14351875 38751","2021-059AB","48904","6901.084","95.090","531.114","514.784","1"
"GENERATED VIA SPACETRACK.ORG API","18 SPCS","48904","SPACEBEE-111","PAYLOAD","U","21059AB","2022-03-09 14:51:01","192320","15.14360639","0.0011885","97.5418","199.2799","88.7883","271.4711","0","999","3883","0.00044115","0.0000804","0","3352425","0 SPACEBEE-111","1 48904U 21059AB  22068.61876380  .00008040  00000-0  44115-3 0  9999","2 48904  97.5418 199.2799 0011885  88.7883 271.4711 15.14360639 38835","2021-059AB","48904","6901.057","95.090","531.124","514.720","1"
"GENERATED VIA SPACETRACK.ORG API","18 SPCS","48904","SPACEBEE-111","PAYLOAD","U","21059AB","2022-03-09 21:11:37","137408","15.14363838","0.0011886","97.5417","199.5419","88.006","272.2533","0","999","3887","0.00038976","0.00007096","0","3352875","0 SPACEBEE-111","1 48904U 21059AB  22068.88306872  .00007096  00000-0  38976-3 0  9990","2 48904  97.5417 199.5419 0011886  88.0060 272.2533 15.14363838 38876","2021-059AB","48904","6901.048","95.089","531.115","514.710","1"
"GENERATED VIA SPACETRACK.ORG API","18 SPCS","48904","SPACEBEE-111","PAYLOAD","U","21059AB","2022-03-10 14:38:15","630432","15.14377087","0.0011841","97.5414","200.2623","85.7248","274.5336","0","999","3898","0.000444","0.00008096","0","3353482","0 SPACEBEE-111","1 48904U 21059AB  22069.60990313  .00008096  00000-0  44400-3 0  9990","2 48904  97.5414 200.2623 0011841  85.7248 274.5336 15.14377087 38982","2021-059AB","48904","6901.007","95.089","531.044","514.701","1"
"GENERATED VIA SPACETRACK.ORG API","18 SPCS","48904","SPACEBEE-111","PAYLOAD","U","21059AB","2022-03-10 14:38:15","630432","15.14377087","0.0011841","97.5414","200.2623","85.7248","274.5336","0","999","3898","0.000444","0.00008096","0","3353708","0 SPACEBEE-111","1 48904U 21059AB  22069.60990313  .00008096  00000-0  44400-3 0  9990","2 48904  97.5414 200.2623 0011841  85.7248 274.5336 15.14377087 38982","2021-059AB","48904","6901.007","95.089","531.044","514.701","1"
"GENERATED VIA SPACETRACK.ORG API","18 SPCS","48904","SPACEBEE-111","PAYLOAD","U","21059AB","2022-03-10 20:58:51","303360","15.14383081","0.0011834","97.5414","200.5242","84.9157","275.3425","0","999","3902","0.00048737","0.00008896","0","3354091","0 SPACEBEE-111","1 48904U 21059AB  22069.87420490  .00008896  00000-0  48737-3 0  9998","2 48904  97.5414 200.5242 0011834  84.9157 275.3425 15.14383081 39029","2021-059AB","48904","6900.989","95.088","531.021","514.687","1"
"GENERATED VIA SPACETRACK.ORG API","18 SPCS","48904","SPACEBEE-111","PAYLOAD","U","21059AB","2022-03-11 08:04:53","507424","15.1439391","0.0011831","97.5413","200.9827","83.4966","276.7612","0","999","3909","0.00056103","0.00010256","0","3354959","0 SPACEBEE-111","1 48904U 21059AB  22070.33673041  .00010256  00000-0  56103-3 0  9992","2 48904  97.5413 200.9827 0011831  83.4966 276.7612 15.14393910 39092","2021-059AB","48904","6900.956","95.088","530.986","514.657","1"
"GENERATED VIA SPACETRACK.ORG API","18 SPCS","48904","SPACEBEE-111","PAYLOAD","U","21059AB","2022-03-11 20:46:04","311552","15.14405043","0.0011796","97.5412","201.5067","81.8643","278.3926","0","999","3917","0.00057955","0.000106","0","3355378","0 SPACEBEE-111","1 48904U 21059AB  22070.86532768  .00010600  00000-0  57955-3 0  9999","2 48904  97.5412 201.5067 0011796  81.8643 278.3926 15.14405043 39174","2021-059AB","48904","6900.922","95.087","530.928","514.647","1"
"GENERATED VIA SPACETRACK.ORG API","18 SPCS","48904","SPACEBEE-111","PAYLOAD","U","21059AB","2022-03-11 22:21:13","139712","15.14406329","0.0011791","97.5412","201.5722","81.6627","278.5941","0","999","3918","0.00058112","0.00010629","0","3355628","0 SPACEBEE-111","1 48904U 21059AB  22070.93140208  .00010629  00000-0  58112-3 0  9998","2 48904  97.5412 201.5722 0011791  81.6627 278.5941 15.14406329 39185","2021-059AB","48904","6900.918","95.087","530.920","514.647","1"
"GENERATED VIA SPACETRACK.ORG API","18 SPCS","48904","SPACEBEE-111","PAYLOAD","U","21059AB","2022-03-12 07:52:05","896128","15.14419719","0.0011747","97.541","201.9651","80.4123","279.8436","0","999","3924","0.00074725","0.00013698","0","3356520","0 SPACEBEE-111","1 48904U 21059AB  22071.32784602  .00013698  00000-0  74725-3 0  9991","2 48904  97.5410 201.9651 0011747  80.4123 279.8436 15.14419719 39244","2021-059AB","48904","6900.878","95.086","530.849","514.636","1"
"GENERATED VIA SPACETRACK.ORG API","18 SPCS","48904","SPACEBEE-111","PAYLOAD","U","21059AB","2022-03-12 22:08:24","743040","15.14427553","0.0011671","97.541","202.5546","78.4808","281.7734","0","999","3933","0.00050467","0.00009226","0","3356931","0 SPACEBEE-111","1 48904U 21059AB  22071.92250860  .00009226  00000-0  50467-3 0  9990","2 48904  97.5410 202.5546 0011671  78.4808 281.7734 15.14427553 39335","2021-059AB","48904","6900.854","95.085","530.773","514.665","1"
"GENERATED VIA SPACETRACK.ORG API","18 SPCS","48904","SPACEBEE-111","PAYLOAD","U","21059AB","2022-03-13 07:39:17","37216","15.14437553","0.0011616","97.541","202.9474","77.2197","283.0332","0","999","3939","0.00055585","0.00010172","0","3357669","0 SPACEBEE-111","1 48904U 21059AB  22072.31894719  .00010172  00000-0  55585-3 0  9999","2 48904  97.5410 202.9474 0011616  77.2197 283.0332 15.14437553 39392","2021-059AB","48904","6900.824","95.085","530.705","514.673","1"
"GENERATED VIA SPACETRACK.ORG API","18 SPCS","48904","SPACEBEE-111","PAYLOAD","U","21059AB","2022-03-13 07:39:17","37216","15.14437553","0.0011616","97.541","202.9474","77.2197","283.0332","0","999","3939","0.00055585","0.00010172","0","3357855","0 SPACEBEE-111","1 48904U 21059AB  22072.31894719  .00010172  00000-0  55585-3 0  9999","2 48904  97.5410 202.9474 0011616  77.2197 283.0332 15.14437553 39392","2021-059AB","48904","6900.824","95.085","530.705","514.673","1"
"GENERATED VIA SPACETRACK.ORG API","18 SPCS","48904","SPACEBEE-111","PAYLOAD","U","21059AB","2022-03-13 21:55:35","116896","15.14454878","0.0011597","97.5413","203.5371","75.1607","285.0908","0","999","3948","0.00076178","0.00013979","0","3358388","0 SPACEBEE-111","1 48904U 21059AB  22072.91360089  .00013979  00000-0  76178-3 0  9992","2 48904  97.5413 203.5371 0011597  75.1607 285.0908 15.14454878 39489","2021-059AB","48904","6900.771","95.084","530.639","514.633","1"
"GENERATED VIA SPACETRACK.ORG API","18 SPCS","48904","SPACEBEE-111","PAYLOAD","U","21059AB","2022-03-14 13:47:01","219488","15.14469804","0.0011614","97.5415","204.1919","72.9844","287.2659","0","999","3958","0.00066793","0.00012251","0","3359259","0 SPACEBEE-111","1 48904U 21059AB  22073.57431967  .00012251  00000-0  66793-3 0  9993","2 48904  97.5415 204.1919 0011614  72.9844 287.2659 15.14469804 39587","2021-059AB","48904","6900.726","95.083","530.605","514.576","1"
"GENERATED VIA SPACETRACK.ORG API","18 SPCS","48904","SPACEBEE-111","PAYLOAD","U","21059AB","2022-03-14 15:22:09","796224","15.14471438","0.0011616","97.5415","204.2574","72.8338","287.4165","0","999","3959","0.00066607","0.00012217","0","3359382","0 SPACEBEE-111","1 48904U 21059AB  22073.64039116  .00012217  00000-0  66607-3 0  9997","2 48904  97.5415 204.2574 0011616  72.8338 287.4165 15.14471438 39595","2021-059AB","48904","6900.721","95.083","530.602","514.570","1"
"GENERATED VIA SPACETRACK.ORG API","18 SPCS","48904","SPACEBEE-111","PAYLOAD","U","21059AB","2022-03-14 20:07:35","469408","15.14476502","0.0011603","97.5417","204.4539","72.1526","288.097","0","999","3962","0.00062175","0.000114","0","3359665","0 SPACEBEE-111","1 48904U 21059AB  22073.83860497  .00011400  00000-0  62175-3 0  9991","2 48904  97.5417 204.4539 0011603  72.1526 288.0970 15.14476502 39620","2021-059AB","48904","6900.705","95.082","530.577","514.563","1"
"GENERATED VIA SPACETRACK.ORG API","18 SPCS","48904","SPACEBEE-111","PAYLOAD","U","21059AB","2022-03-14 21:42:44","20224","15.14478064","0.0011615","97.5418","204.5194","71.9456","288.304","0","999","3963","0.00061275","0.00011235","0","3360128","0 SPACEBEE-111","1 48904U 21059AB  22073.90467616  .00011235  00000-0  61275-3 0  9991","2 48904  97.5418 204.5194 0011615  71.9456 288.3040 15.14478064 39638","2021-059AB","48904","6900.701","95.082","530.581","514.550","1"
